[{"OBJECT_NAME":"THEA","OBJECT_ID":"2018-099AQ","EPOCH":"2026-03-09T22:33:02.658240","MEAN_MOTION":15.31454284,"ECCENTRICITY":0.00065849,"INCLINATION":97.4542,"RA_OF_ASC_NODE":137.8815,"ARG_OF_PERICENTER":275.4664,"MEAN_ANOMALY":84.5826,"EPHEMERIS_TYPE":0,"CLASSIFICATION_TYPE":"U","NORAD_CAT_ID":43796,"ELEMENT_SET_NO":999,"REV_AT_EPOCH":39748,"BSTAR":0.00074635274,"MEAN_MOTION_DOT":0.00022649,"MEAN_MOTION_DDOT":0},{"OBJECT_NAME":"STARLINK-34718","OBJECT_ID":"2025-157H","EPOCH":"2026-03-09T21:39:59.120640","MEAN_MOTION":15.30213386,"ECCENTRICITY":0.00012893,"INCLINATION":53.1606,"RA_OF_ASC_NODE":344.8785,"ARG_OF_PERICENTER":111.2963,"MEAN_ANOMALY":248.8175,"EPHEMERIS_TYPE":0,"CLASSIFICATION_TYPE":"U","NORAD_CAT_ID":64911,"ELEMENT_SET_NO":999,"REV_AT_EPOCH":3615,"BSTAR":0.0010377307,"MEAN_MOTION_DOT":0.00030514,"MEAN_MOTION_DDOT":0}]
